[{"OBJECT_NAME":"STARLINK-31346","OBJECT_ID":"2024-027N","EPOCH":"2026-03-09T23:25:16.023360","MEAN_MOTION":15.30208288,"ECCENTRICITY":0.00012728,"INCLINATION":53.1615,"RA_OF_ASC_NODE":306.0675,"ARG_OF_PERICENTER":116.8249,"MEAN_ANOMALY":243.2882,"EPHEMERIS_TYPE":0,"CLASSIFICATION_TYPE":"U","NORAD_CAT_ID":58943,"ELEMENT_SET_NO":999,"REV_AT_EPOCH":11740,"BSTAR":-7.9707385e-5,"MEAN_MOTION_DOT":-2.72e-5,"MEAN_MOTION_DDOT":0},{"OBJECT_NAME":"OBJECT F","OBJECT_ID":"2024-092F","EPOCH":"2026-03-09T21:54:46.147104","MEAN_MOTION":15.3361444,"ECCENTRICITY":0.00086458,"INCLINATION":97.6418,"RA_OF_ASC_NODE":198.4543,"ARG_OF_PERICENTER":142.6506,"MEAN_ANOMALY":217.5339,"EPHEMERIS_TYPE":0,"CLASSIFICATION_TYPE":"U","NORAD_CAT_ID":59778,"ELEMENT_SET_NO":999,"REV_AT_EPOCH":10053,"BSTAR":0.0007914277,"MEAN_MOTION_DOT":0.00025723,"MEAN_MOTION_DDOT":0}]
